{
    "links": {
        "self": "http://www.neowsapp.com/rest/v1/neo/3443805?api_key=iIulBulltgU6a56xZRHN4H3l9WmuAYTsLGpBGhQ2"
    },
    "id": "3443805",
    "neo_reference_id": "3443805",
    "name": "(2008 YV32)",
    "designation": "2008 YV32",
    "nasa_jpl_url": "http://ssd.jpl.nasa.gov/sbdb.cgi?sstr=3443805",
    "absolute_magnitude_h": 26.3,
    "estimated_diameter": {
        "kilometers": {
            "estimated_diameter_min": 0.0146067964,
            "estimated_diameter_max": 0.0326617897
        },
        "meters": {
            "estimated_diameter_min": 14.6067964271,
            "estimated_diameter_max": 32.6617897446
        },
        "miles": {
            "estimated_diameter_min": 0.0090762397,
            "estimated_diameter_max": 0.020295089
        },
        "feet": {
            "estimated_diameter_min": 47.92256199,
            "estimated_diameter_max": 107.1581062656
        }
    },
    "is_potentially_hazardous_asteroid": false,
    "close_approach_data": [
        {
            "close_approach_date": "2007-05-17",
            "close_approach_date_full": "2007-May-17 17:28",
            "epoch_date_close_approach": 1179422880000,
            "relative_velocity": {
                "kilometers_per_second": "21.858082626",
                "kilometers_per_hour": "78689.097453636",
                "miles_per_hour": "48894.3450261218"
            },
            "miss_distance": {
                "astronomical": "0.4392080202",
                "lunar": "170.8519198578",
                "kilometers": "65704584.308836974",
                "miles": "40826935.5193552812"
            },
            "orbiting_body": "Earth"
        },
        {
            "close_approach_date": "2009-01-09",
            "close_approach_date_full": "2009-Jan-09 04:07",
            "epoch_date_close_approach": 1231474020000,
            "relative_velocity": {
                "kilometers_per_second": "8.7011863737",
                "kilometers_per_hour": "31324.2709453206",
                "miles_per_hour": "19463.6837993299"
            },
            "miss_distance": {
                "astronomical": "0.0071375958",
                "lunar": "2.7765247662",
                "kilometers": "1067769.128600946",
                "miles": "663480.9704912148"
            },
            "orbiting_body": "Moon"
        },
        {
            "close_approach_date": "2009-01-09",
            "close_approach_date_full": "2009-Jan-09 19:41",
            "epoch_date_close_approach": 1231530060000,
            "relative_velocity": {
                "kilometers_per_second": "8.6329089966",
                "kilometers_per_hour": "31078.4723877899",
                "miles_per_hour": "19310.9541345131"
            },
            "miss_distance": {
                "astronomical": "0.0070456609",
                "lunar": "2.7407620901",
                "kilometers": "1054015.863382283",
                "miles": "654935.0877621854"
            },
            "orbiting_body": "Earth"
        }
    ],
    "orbital_data": {
        "orbit_id": "10",
        "orbit_determination_date": "2017-04-06 09:01:45",
        "first_observation_date": "2008-12-31",
        "last_observation_date": "2009-01-09",
        "data_arc_in_days": 9,
        "observations_used": 45,
        "orbit_uncertainty": "8",
        "minimum_orbit_intersection": ".00196268",
        "jupiter_tisserand_invariant": "4.410",
        "epoch_osculation": "2454833.5",
        "eccentricity": ".4112143538161853",
        "semi_major_axis": "1.519076144132936",
        "inclination": "1.061251672643633",
        "ascending_node_longitude": "114.6770200615504",
        "orbital_period": "683.8608507023456",
        "perihelion_distance": ".8944102291257281",
        "perihelion_argument": "40.11883588340011",
        "aphelion_distance": "2.143742059140143",
        "perihelion_time": "2454876.385705275276",
        "mean_anomaly": "337.4239834269746",
        "mean_motion": ".5264228821261946",
        "equinox": "J2000",
        "orbit_class": {
            "orbit_class_type": "APO",
            "orbit_class_description": "Near-Earth asteroid orbits which cross the Earth’s orbit similar to that of 1862 Apollo",
            "orbit_class_range": "a (semi-major axis) > 1.0 AU; q (perihelion) < 1.017 AU"
        }
    },
    "is_sentry_object": false
}